start=new Date('2021-12-27T00:00:00.000Z').valueOf();
sats=[{"NORAD_CAT_ID":"47581","GP_ID":"192495431","RA_OF_ASC_NODE":"48.5838","SEMIMAJOR_AXIS":"6925.360","MEAN_MOTION_DOT":"0.00008893","OBJECT_TYPE":"PAYLOAD","TLE_LINE2":"2 47581  53.0562  48.5838 0001331  78.5270 281.5869 15.06396241 49842","MEAN_MOTION":"15.06396241","OBJECT_NAME":"STARLINK-1984","PERIAPSIS":"546.303","BSTAR":"0.00061519000000","CENTER_NAME":"EARTH","REF_FRAME":"TEME","COUNTRY_CODE":"US","FILE":"3251546","TLE_LINE1":"1 47581U 21009AK  21360.56218725  .00008893  00000-0  61519-3 0  9998","MEAN_ELEMENT_THEORY":"SGP4","CLASSIFICATION_TYPE":"U","TIME_SYSTEM":"UTC","ELEMENT_SET_NO":"999","EPOCH":"2021-12-26T13:29:32.978400","EPHEMERIS_TYPE":"0","REV_AT_EPOCH":"4984","MEAN_MOTION_DDOT":"0.0000000000000","RCS_SIZE":"LARGE","INCLINATION":"53.0562","APOAPSIS":"548.147","SITE":"AFETR","MEAN_ANOMALY":"281.5869","LAUNCH_DATE":"2021-02-04","PERIOD":"95.592","ARG_OF_PERICENTER":"78.5270","DECAY_DATE":null,"ECCENTRICITY":"0.00013310","OBJECT_ID":"2021-009AK"},{"BSTAR":"0.00004206500000","CENTER_NAME":"EARTH","REF_FRAME":"TEME","PERIAPSIS":"546.290","MEAN_MOTION":"15.06389189","OBJECT_NAME":"STARLINK-1986","SEMIMAJOR_AXIS":"6925.382","TLE_LINE2":"2 47582  53.0552  68.6543 0001381  89.8389 270.2759 15.06389189 49564","OBJECT_TYPE":"PAYLOAD","MEAN_MOTION_DOT":"0.00000345","NORAD_CAT_ID":"47582","RA_OF_ASC_NODE":"68.6543","GP_ID":"192494192","DECAY_DATE":null,"ARG_OF_PERICENTER":"89.8389","OBJECT_ID":"2021-009AL","ECCENTRICITY":"0.00013810","LAUNCH_DATE":"2021-02-04","PERIOD":"95.593","INCLINATION":"53.0552","RCS_SIZE":"LARGE","MEAN_MOTION_DDOT":"0.0000000000000","MEAN_ANOMALY":"270.2759","SITE":"AFETR","APOAPSIS":"548.203","TIME_SYSTEM":"UTC","TLE_LINE1":"1 47582U 21009AL  21360.54928494  .00000345  00000-0  42065-4 0  9998","CLASSIFICATION_TYPE":"U","FILE":"3251546","MEAN_ELEMENT_THEORY":"SGP4","COUNTRY_CODE":"US","REV_AT_EPOCH":"4956","EPHEMERIS_TYPE":"0","EPOCH":"2021-12-26T13:10:58.218816","ELEMENT_SET_NO":"999"},{"NORAD_CAT_ID":"47583","GP_ID":"192525349","RA_OF_ASC_NODE":"68.4453","SEMIMAJOR_AXIS":"6925.342","OBJECT_TYPE":"PAYLOAD","MEAN_MOTION_DOT":"0.00004340","TLE_LINE2":"2 47583  53.0539  68.4453 0001361  82.3663 277.7480 15.06402101 49573","OBJECT_NAME":"STARLINK-1987","MEAN_MOTION":"15.06402101","PERIAPSIS":"546.265","BSTAR":"0.00031008000000","CENTER_NAME":"EARTH","REF_FRAME":"TEME","COUNTRY_CODE":"US","TIME_SYSTEM":"UTC","TLE_LINE1":"1 47583U 21009AM  21360.59351475  .00004340  00000-0  31008-3 0  9996","MEAN_ELEMENT_THEORY":"SGP4","FILE":"3251846","CLASSIFICATION_TYPE":"U","EPOCH":"2021-12-26T14:14:39.674400","EPHEMERIS_TYPE":"0","ELEMENT_SET_NO":"999","REV_AT_EPOCH":"4957","INCLINATION":"53.0539","RCS_SIZE":"LARGE","MEAN_MOTION_DDOT":"0.0000000000000","SITE":"AFETR","APOAPSIS":"548.150","MEAN_ANOMALY":"277.7480","LAUNCH_DATE":"2021-02-04","PERIOD":"95.592","DECAY_DATE":null,"ARG_OF_PERICENTER":"82.3663","ECCENTRICITY":"0.00013610","OBJECT_ID":"2021-009AM"},{"LAUNCH_DATE":"2021-02-04","PERIOD":"92.144","DECAY_DATE":null,"ARG_OF_PERICENTER":"30.9494","OBJECT_ID":"2021-009AN","ECCENTRICITY":"0.00043240","TIME_SYSTEM":"UTC","MEAN_ELEMENT_THEORY":"SGP4","TLE_LINE1":"1 47584U 21009AN  21360.94289869  .00025556  00000-0  28373-3 0  9996","FILE":"3251846","CLASSIFICATION_TYPE":"U","COUNTRY_CODE":"US","REV_AT_EPOCH":"5097","EPHEMERIS_TYPE":"0","EPOCH":"2021-12-26T22:37:46.446816","ELEMENT_SET_NO":"999","INCLINATION":"53.0515","RCS_SIZE":"LARGE","MEAN_MOTION_DDOT":"0.0000000000000","MEAN_ANOMALY":"329.1774","SITE":"AFETR","APOAPSIS":"382.566","PERIAPSIS":"376.722","MEAN_MOTION":"15.62776166","OBJECT_NAME":"STARLINK-1988","BSTAR":"0.00028373000000","CENTER_NAME":"EARTH","REF_FRAME":"TEME","NORAD_CAT_ID":"47584","RA_OF_ASC_NODE":"330.6860","GP_ID":"192524099","SEMIMAJOR_AXIS":"6757.779","TLE_LINE2":"2 47584  53.0515 330.6860 0004324  30.9494 329.1774 15.62776166 50978","OBJECT_TYPE":"PAYLOAD","MEAN_MOTION_DOT":"0.00025556"},{"ECCENTRICITY":"0.00048860","OBJECT_ID":"2021-009AP","ARG_OF_PERICENTER":"164.7804","DECAY_DATE":null,"PERIOD":"95.592","LAUNCH_DATE":"2021-02-04","MEAN_ANOMALY":"195.3333","APOAPSIS":"550.605","SITE":"AFETR","MEAN_MOTION_DDOT":"0.0000000000000","RCS_SIZE":"LARGE","INCLINATION":"53.0561","REV_AT_EPOCH":"5016","ELEMENT_SET_NO":"999","EPOCH":"2021-12-26T13:16:16.057632","EPHEMERIS_TYPE":"0","TLE_LINE1":"1 47585U 21009AP  21360.55296363  .00000638  00000-0  61792-4 0  9998","FILE":"3251664","MEAN_ELEMENT_THEORY":"SGP4","CLASSIFICATION_TYPE":"U","TIME_SYSTEM":"UTC","COUNTRY_CODE":"US","REF_FRAME":"TEME","BSTAR":"0.00006179200000","CENTER_NAME":"EARTH","PERIAPSIS":"543.837","OBJECT_NAME":"STARLINK-1989","MEAN_MOTION":"15.06397515","TLE_LINE2":"2 47585  53.0561  68.6223 0004886 164.7804 195.3333 15.06397515 50165","MEAN_MOTION_DOT":"0.00000638","OBJECT_TYPE":"PAYLOAD","SEMIMAJOR_AXIS":"6925.356","RA_OF_ASC_NODE":"68.6223","GP_ID":"192499749","NORAD_CAT_ID":"47585"},{"BSTAR":"0.00032945000000","CENTER_NAME":"EARTH","REF_FRAME":"TEME","PERIAPSIS":"546.378","OBJECT_NAME":"STARLINK-1990","MEAN_MOTION":"15.06401142","SEMIMAJOR_AXIS":"6925.345","TLE_LINE2":"2 47586  53.0545  87.8014 0001202  90.7047 269.4080 15.06401142 49314","MEAN_MOTION_DOT":"0.00004629","OBJECT_TYPE":"PAYLOAD","NORAD_CAT_ID":"47586","RA_OF_ASC_NODE":"87.8014","GP_ID":"192525101","ARG_OF_PERICENTER":"90.7047","DECAY_DATE":null,"ECCENTRICITY":"0.00012020","OBJECT_ID":"2021-009AQ","LAUNCH_DATE":"2021-02-04","PERIOD":"95.592","MEAN_MOTION_DDOT":"0.0000000000000","INCLINATION":"53.0545","RCS_SIZE":"LARGE","MEAN_ANOMALY":"269.4080","APOAPSIS":"548.042","SITE":"AFETR","TLE_LINE1":"1 47586U 21009AQ  21360.73541841  .00004629  00000-0  32945-3 0  9994","FILE":"3251846","CLASSIFICATION_TYPE":"U","MEAN_ELEMENT_THEORY":"SGP4","TIME_SYSTEM":"UTC","COUNTRY_CODE":"US","REV_AT_EPOCH":"4931","ELEMENT_SET_NO":"999","EPHEMERIS_TYPE":"0","EPOCH":"2021-12-26T17:39:00.150624"},{"RA_OF_ASC_NODE":"58.1291","GP_ID":"192525850","NORAD_CAT_ID":"47587","TLE_LINE2":"2 47587  53.0557  58.1291 0001496  85.6181 274.4979 15.06400045 49722","OBJECT_TYPE":"PAYLOAD","MEAN_MOTION_DOT":"0.00002868","SEMIMAJOR_AXIS":"6925.348","PERIAPSIS":"546.177","OBJECT_NAME":"STARLINK-1991","MEAN_MOTION":"15.06400045","REF_FRAME":"TEME","BSTAR":"0.00021133000000","CENTER_NAME":"EARTH","REV_AT_EPOCH":"4972","EPHEMERIS_TYPE":"0","EPOCH":"2021-12-26T15:56:49.940160","ELEMENT_SET_NO":"999","TIME_SYSTEM":"UTC","TLE_LINE1":"1 47587U 21009AR  21360.66446690  .00002868  00000-0  21133-3 0  9993","CLASSIFICATION_TYPE":"U","FILE":"3251846","MEAN_ELEMENT_THEORY":"SGP4","COUNTRY_CODE":"US","MEAN_ANOMALY":"274.4979","SITE":"AFETR","APOAPSIS":"548.249","INCLINATION":"53.0557","RCS_SIZE":"LARGE","MEAN_MOTION_DDOT":"0.0000000000000","PERIOD":"95.592","LAUNCH_DATE":"2021-02-04","ECCENTRICITY":"0.00014960","OBJECT_ID":"2021-009AR","DECAY_DATE":null,"ARG_OF_PERICENTER":"85.6181"},{"DECAY_DATE":null,"ARG_OF_PERICENTER":"80.0792","OBJECT_ID":"2021-009AS","ECCENTRICITY":"0.00013470","LAUNCH_DATE":"2021-02-04","PERIOD":"95.592","INCLINATION":"53.0544","RCS_SIZE":"LARGE","MEAN_MOTION_DDOT":"0.0000000000000","MEAN_ANOMALY":"280.0349","SITE":"AFETR","APOAPSIS":"548.152","TIME_SYSTEM":"UTC","TLE_LINE1":"1 47588U 21009AS  21360.58982127  .00000145  00000-0  28603-4 0  9991","CLASSIFICATION_TYPE":"U","FILE":"3251664","MEAN_ELEMENT_THEORY":"SGP4","COUNTRY_CODE":"US","REV_AT_EPOCH":"5018","EPOCH":"2021-12-26T14:09:20.557728","EPHEMERIS_TYPE":"0","ELEMENT_SET_NO":"999","CENTER_NAME":"EARTH","BSTAR":"0.00002860300000","REF_FRAME":"TEME","PERIAPSIS":"546.286","OBJECT_NAME":"STARLINK-1993","MEAN_MOTION":"15.06398184","SEMIMAJOR_AXIS":"6925.354","TLE_LINE2":"2 47588  53.0544  68.4640 0001347  80.0792 280.0349 15.06398184 50189","OBJECT_TYPE":"PAYLOAD","MEAN_MOTION_DOT":"0.00000145","NORAD_CAT_ID":"47588","RA_OF_ASC_NODE":"68.4640","GP_ID":"192499745"},{"OBJECT_NAME":"STARLINK-1994","MEAN_MOTION":"15.06391124","PERIAPSIS":"546.274","BSTAR":"0.00001350700000","CENTER_NAME":"EARTH","REF_FRAME":"TEME","NORAD_CAT_ID":"47589","GP_ID":"192495432","RA_OF_ASC_NODE":"68.9764","SEMIMAJOR_AXIS":"6925.376","MEAN_MOTION_DOT":"-0.00000080","OBJECT_TYPE":"PAYLOAD","TLE_LINE2":"2 47589  53.0566  68.9764 0001396  86.6890 273.4259 15.06391124 49553","LAUNCH_DATE":"2021-02-04","PERIOD":"95.593","ARG_OF_PERICENTER":"86.6890","DECAY_DATE":null,"ECCENTRICITY":"0.00013960","OBJECT_ID":"2021-009AT","COUNTRY_CODE":"US","TLE_LINE1":"1 47589U 21009AT  21360.47556856 -.00000080  00000-0  13507-4 0  9992","CLASSIFICATION_TYPE":"U","FILE":"3251546","MEAN_ELEMENT_THEORY":"SGP4","TIME_SYSTEM":"UTC","ELEMENT_SET_NO":"999","EPOCH":"2021-12-26T11:24:49.123584","EPHEMERIS_TYPE":"0","REV_AT_EPOCH":"4955","MEAN_MOTION_DDOT":"0.0000000000000","RCS_SIZE":"LARGE","INCLINATION":"53.0566","APOAPSIS":"548.208","SITE":"AFETR","MEAN_ANOMALY":"273.4259"},{"TLE_LINE2":"2 47590  53.0564  88.1199 0001164  78.7576 281.3544 15.06387063 49300","MEAN_MOTION_DOT":"-0.00001139","OBJECT_TYPE":"PAYLOAD","SEMIMAJOR_AXIS":"6925.388","RA_OF_ASC_NODE":"88.1199","GP_ID":"192525602","NORAD_CAT_ID":"47590","REF_FRAME":"TEME","BSTAR":"-0.00005759500000","CENTER_NAME":"EARTH","PERIAPSIS":"546.447","MEAN_MOTION":"15.06387063","OBJECT_NAME":"STARLINK-1995","MEAN_ANOMALY":"281.3544","APOAPSIS":"548.059","SITE":"AFETR","MEAN_MOTION_DDOT":"0.0000000000000","INCLINATION":"53.0564","RCS_SIZE":"LARGE","REV_AT_EPOCH":"4930","ELEMENT_SET_NO":"999","EPHEMERIS_TYPE":"0","EPOCH":"2021-12-26T15:58:10.867584","FILE":"3251846","TLE_LINE1":"1 47590U 21009AU  21360.66540356 -.00001139  00000-0 -57595-4 0  9995","MEAN_ELEMENT_THEORY":"SGP4","CLASSIFICATION_TYPE":"U","TIME_SYSTEM":"UTC","COUNTRY_CODE":"US","ECCENTRICITY":"0.00011640","OBJECT_ID":"2021-009AU","ARG_OF_PERICENTER":"78.7576","DECAY_DATE":null,"PERIOD":"95.593","LAUNCH_DATE":"2021-02-04"}];
